{"fetched_at":"2026-07-18T17:29:29.751Z","source":"https://celestrak.org/NORAD/elements/gp.php?GROUP=kuiper&FORMAT=JSON","constellation":"kuiper","records":[{"OBJECT_NAME":"KUIPER-00589","OBJECT_ID":"2026-151E","EPOCH":"2026-07-18T05:47:43.010592","CLASSIFICATION_TYPE":"U","MEAN_MOTION":15.37386497,"ECCENTRICITY":0.00052751,"INCLINATION":51.8762,"RA_OF_ASC_NODE":165.6547,"ARG_OF_PERICENTER":150.5309,"MEAN_ANOMALY":209.5976,"EPHEMERIS_TYPE":0,"NORAD_CAT_ID":69767,"ELEMENT_SET_NO":999,"REV_AT_EPOCH":248,"BSTAR":0.00024425384,"MEAN_MOTION_DOT":0.00008712,"MEAN_MOTION_DDOT":0},{"OBJECT_NAME":"KUIPER-00598","OBJECT_ID":"2026-151F","EPOCH":"2026-07-18T06:00:02.000160","CLASSIFICATION_TYPE":"U","MEAN_MOTION":15.34391793,"ECCENTRICITY":0.00085606,"INCLINATION":51.8642,"RA_OF_ASC_NODE":165.8361,"ARG_OF_PERICENTER":173.1739,"MEAN_ANOMALY":120.5182,"EPHEMERIS_TYPE":0,"NORAD_CAT_ID":69768,"ELEMENT_SET_NO":999,"REV_AT_EPOCH":302,"BSTAR":0.00036591314,"MEAN_MOTION_DOT":0.00012023,"MEAN_MOTION_DDOT":0},{"OBJECT_NAME":"KUIPER-00604","OBJECT_ID":"2026-151G","EPOCH":"2026-07-18T07:08:47.067936","CLASSIFICATION_TYPE":"U","MEAN_MOTION":15.3828779,"ECCENTRICITY":0.00026819,"INCLINATION":51.8806,"RA_OF_ASC_NODE":165.2813,"ARG_OF_PERICENTER":116.8427,"MEAN_ANOMALY":243.2835,"EPHEMERIS_TYPE":0,"NORAD_CAT_ID":69769,"ELEMENT_SET_NO":999,"REV_AT_EPOCH":249,"BSTAR":0.00030798292,"MEAN_MOTION_DOT":0.00011428,"MEAN_MOTION_DDOT":0},{"OBJECT_NAME":"KUIPER-00609","OBJECT_ID":"2026-151H","EPOCH":"2026-07-18T07:02:35.174688","CLASSIFICATION_TYPE":"U","MEAN_MOTION":15.3867852,"ECCENTRICITY":0.00012471,"INCLINATION":51.8809,"RA_OF_ASC_NODE":165.2531,"ARG_OF_PERICENTER":57.8573,"MEAN_ANOMALY":302.2536,"EPHEMERIS_TYPE":0,"NORAD_CAT_ID":69770,"ELEMENT_SET_NO":999,"REV_AT_EPOCH":249,"BSTAR":0.00021858833,"MEAN_MOTION_DOT":0.00008098,"MEAN_MOTION_DDOT":0},{"OBJECT_NAME":"KUIPER-00611","OBJECT_ID":"2026-151J","EPOCH":"2026-07-18T07:05:35.726496","CLASSIFICATION_TYPE":"U","MEAN_MOTION":15.38502421,"ECCENTRICITY":0.00015597,"INCLINATION":51.8812,"RA_OF_ASC_NODE":165.2626,"ARG_OF_PERICENTER":114.0784,"MEAN_ANOMALY":246.0367,"EPHEMERIS_TYPE":0,"NORAD_CAT_ID":69771,"ELEMENT_SET_NO":999,"REV_AT_EPOCH":249,"BSTAR":0.00034479133,"MEAN_MOTION_DOT":0.00012935,"MEAN_MOTION_DDOT":0},{"OBJECT_NAME":"KUIPER-00612","OBJECT_ID":"2026-151K","EPOCH":"2026-07-18T07:13:14.187360","CLASSIFICATION_TYPE":"U","MEAN_MOTION":15.37985494,"ECCENTRICITY":0.00036292,"INCLINATION":51.8801,"RA_OF_ASC_NODE":165.3029,"ARG_OF_PERICENTER":124.6341,"MEAN_ANOMALY":235.4988,"EPHEMERIS_TYPE":0,"NORAD_CAT_ID":69772,"ELEMENT_SET_NO":999,"REV_AT_EPOCH":249,"BSTAR":0.00025156023,"MEAN_MOTION_DOT":0.00009166,"MEAN_MOTION_DDOT":0},{"OBJECT_NAME":"KUIPER-00614","OBJECT_ID":"2026-151L","EPOCH":"2026-07-18T07:10:04.925568","CLASSIFICATION_TYPE":"U","MEAN_MOTION":15.38195804,"ECCENTRICITY":0.00026376,"INCLINATION":51.881,"RA_OF_ASC_NODE":165.2858,"ARG_OF_PERICENTER":131.3075,"MEAN_ANOMALY":228.814,"EPHEMERIS_TYPE":0,"NORAD_CAT_ID":69773,"ELEMENT_SET_NO":999,"REV_AT_EPOCH":249,"BSTAR":0.00029650104,"MEAN_MOTION_DOT":0.00010952,"MEAN_MOTION_DDOT":0},{"OBJECT_NAME":"KUIPER-00615","OBJECT_ID":"2026-151M","EPOCH":"2026-07-18T05:50:19.196736","CLASSIFICATION_TYPE":"U","MEAN_MOTION":15.37268254,"ECCENTRICITY":0.00059896,"INCLINATION":51.8783,"RA_OF_ASC_NODE":165.6659,"ARG_OF_PERICENTER":157.5895,"MEAN_ANOMALY":202.5354,"EPHEMERIS_TYPE":0,"NORAD_CAT_ID":69774,"ELEMENT_SET_NO":999,"REV_AT_EPOCH":248,"BSTAR":0.00024666733,"MEAN_MOTION_DOT":0.00008768,"MEAN_MOTION_DDOT":0},{"OBJECT_NAME":"KUIPER-00616","OBJECT_ID":"2026-151N","EPOCH":"2026-07-18T07:07:26.640768","CLASSIFICATION_TYPE":"U","MEAN_MOTION":15.38429645,"ECCENTRICITY":0.00029597,"INCLINATION":51.8793,"RA_OF_ASC_NODE":165.2779,"ARG_OF_PERICENTER":134.0384,"MEAN_ANOMALY":226.0848,"EPHEMERIS_TYPE":0,"NORAD_CAT_ID":69775,"ELEMENT_SET_NO":999,"REV_AT_EPOCH":249,"BSTAR":0.00058719962,"MEAN_MOTION_DOT":0.00022283,"MEAN_MOTION_DDOT":0},{"OBJECT_NAME":"KUIPER-00617","OBJECT_ID":"2026-151P","EPOCH":"2026-07-18T07:15:15.389280","CLASSIFICATION_TYPE":"U","MEAN_MOTION":15.37835329,"ECCENTRICITY":0.00037591,"INCLINATION":51.8805,"RA_OF_ASC_NODE":165.3116,"ARG_OF_PERICENTER":144.4856,"MEAN_ANOMALY":215.6382,"EPHEMERIS_TYPE":0,"NORAD_CAT_ID":69776,"ELEMENT_SET_NO":999,"REV_AT_EPOCH":249,"BSTAR":0.00036425981,"MEAN_MOTION_DOT":0.0001339,"MEAN_MOTION_DDOT":0},{"OBJECT_NAME":"KUIPER-00619","OBJECT_ID":"2026-151Q","EPOCH":"2026-07-18T07:04:02.967456","CLASSIFICATION_TYPE":"U","MEAN_MOTION":15.38591696,"ECCENTRICITY":0.00018204,"INCLINATION":51.8807,"RA_OF_ASC_NODE":165.259,"ARG_OF_PERICENTER":65.7404,"MEAN_ANOMALY":294.3774,"EPHEMERIS_TYPE":0,"NORAD_CAT_ID":69777,"ELEMENT_SET_NO":999,"REV_AT_EPOCH":249,"BSTAR":0.00031937415,"MEAN_MOTION_DOT":0.00011987,"MEAN_MOTION_DDOT":0},{"OBJECT_NAME":"KUIPER-00621","OBJECT_ID":"2026-151R","EPOCH":"2026-07-18T07:07:27.965280","CLASSIFICATION_TYPE":"U","MEAN_MOTION":15.38280323,"ECCENTRICITY":0.00023148,"INCLINATION":51.8803,"RA_OF_ASC_NODE":165.2769,"ARG_OF_PERICENTER":112.0327,"MEAN_ANOMALY":248.0906,"EPHEMERIS_TYPE":0,"NORAD_CAT_ID":69778,"ELEMENT_SET_NO":999,"REV_AT_EPOCH":249,"BSTAR":-0.00073882779,"MEAN_MOTION_DOT":-0.00028602,"MEAN_MOTION_DDOT":0},{"OBJECT_NAME":"KUIPER-00622","OBJECT_ID":"2026-151S","EPOCH":"2026-07-18T05:53:35.175264","CLASSIFICATION_TYPE":"U","MEAN_MOTION":15.36959265,"ECCENTRICITY":0.00068617,"INCLINATION":51.874,"RA_OF_ASC_NODE":165.6799,"ARG_OF_PERICENTER":156.8113,"MEAN_ANOMALY":203.3184,"EPHEMERIS_TYPE":0,"NORAD_CAT_ID":69779,"ELEMENT_SET_NO":999,"REV_AT_EPOCH":248,"BSTAR":0.00025964016,"MEAN_MOTION_DOT":0.00009157,"MEAN_MOTION_DDOT":0},{"OBJECT_NAME":"KUIPER-00623","OBJECT_ID":"2026-151T","EPOCH":"2026-07-17T06:22:24.548160","CLASSIFICATION_TYPE":"U","MEAN_MOTION":15.37672053,"ECCENTRICITY":0.0006129,"INCLINATION":51.8777,"RA_OF_ASC_NODE":170.365,"ARG_OF_PERICENTER":146.6,"MEAN_ANOMALY":213.5375,"EPHEMERIS_TYPE":0,"NORAD_CAT_ID":69780,"ELEMENT_SET_NO":999,"REV_AT_EPOCH":233,"BSTAR":0.003498,"MEAN_MOTION_DOT":0.00133416,"MEAN_MOTION_DDOT":0},{"OBJECT_NAME":"KUIPER-00626","OBJECT_ID":"2026-151U","EPOCH":"2026-07-18T03:04:21.358272","CLASSIFICATION_TYPE":"U","MEAN_MOTION":15.35068983,"ECCENTRICITY":0.00087165,"INCLINATION":51.8697,"RA_OF_ASC_NODE":166.3843,"ARG_OF_PERICENTER":175.5085,"MEAN_ANOMALY":184.5981,"EPHEMERIS_TYPE":0,"NORAD_CAT_ID":69781,"ELEMENT_SET_NO":999,"REV_AT_EPOCH":246,"BSTAR":-0.001511643,"MEAN_MOTION_DOT":-0.00052319,"MEAN_MOTION_DDOT":0},{"OBJECT_NAME":"KUIPER-00627","OBJECT_ID":"2026-151V","EPOCH":"2026-07-18T03:07:19.535808","CLASSIFICATION_TYPE":"U","MEAN_MOTION":15.34740876,"ECCENTRICITY":0.00103614,"INCLINATION":51.8687,"RA_OF_ASC_NODE":166.3992,"ARG_OF_PERICENTER":177.7443,"MEAN_ANOMALY":182.3591,"EPHEMERIS_TYPE":0,"NORAD_CAT_ID":69782,"ELEMENT_SET_NO":999,"REV_AT_EPOCH":246,"BSTAR":-0.00055975255,"MEAN_MOTION_DOT":-0.00019508,"MEAN_MOTION_DDOT":0}]}
